{"type": "FeatureCollection", "features": [ {"type": "Feature", "properties": {"norad_id": 35480, "name": "IRIDIUM 33 DEB", "group": "iridium-33-debris", "lat": -60.95977856069258, "lon": 15.520078413063704, "alt_km": 742.930597289338, "timestamp": "2025-12-19T04:59:48.691848+00:00", "meta": {"OBJECT_NAME": "IRIDIUM 33 DEB", "OBJECT_ID": "1997-051QA", "EPOCH": "2025-12-15T08:30:57.118464", "MEAN_MOTION": 14.49774703, "ECCENTRICITY": 0.00160032, "INCLINATION": 86.3571, "RA_OF_ASC_NODE": 23.7786, "ARG_OF_PERICENTER": 97.0457, "MEAN_ANOMALY": 263.2568, "EPHEMERIS_TYPE": 0, "CLASSIFICATION_TYPE": "U", "NORAD_CAT_ID": 35480, "ELEMENT_SET_NO": 999, "REV_AT_EPOCH": 87069, "BSTAR": 0.00045738518, "MEAN_MOTION_DOT": 1.785e-05, "MEAN_MOTION_DDOT": 0}, "tle": {"line1": "1 35480U 97051QA  25349.35482776  .00001785  00000+0  45739-3 0  9998", "line2": "2 35480  86.3571  23.7786 0016003  97.0457 263.2568 14.49774703870695"}}, "geometry": {"type": "Point", "coordinates": [15.520078413063704, -60.95977856069258]}}, {"type": "Feature", "properties": {"norad_id": 35484, "name": "IRIDIUM 33 DEB", "group": "iridium-33-debris", "lat": 10.576324957574613, "lon": 169.03838479231135, "alt_km": 563.9724503404477, "timestamp": "2025-12-19T04:59:48.691858+00:00", "meta": {"OBJECT_NAME": "IRIDIUM 33 DEB", "OBJECT_ID": "1997-051QE", "EPOCH": "2025-12-13T07:15:48.307680", "MEAN_MOTION": 14.98714194, "ECCENTRICITY": 0.00237352, "INCLINATION": 86.3615, "RA_OF_ASC_NODE": 352.4822, "ARG_OF_PERICENTER": 123.3819, "MEAN_ANOMALY": 236.9688, "EPHEMERIS_TYPE": 0, "CLASSIFICATION_TYPE": "U", "NORAD_CAT_ID": 35484, "ELEMENT_SET_NO": 999, "REV_AT_EPOCH": 62024, "BSTAR": 0.0048114888, "MEAN_MOTION_DOT": 0.00058609, "MEAN_MOTION_DDOT": 0}, "tle": {"line1": "1 35484U 97051QE  25347.30264245  .00058609  00000+0  48115-2 0  9991", "line2": "2 35484  86.3615 352.4822 0023735 123.3819 236.9688 14.98714194620242"}}, "geometry": {"type": "Point", "coordinates": [169.03838479231135, 10.576324957574613]}}, {"type": "Feature", "properties": {"norad_id": 35488, "name": "IRIDIUM 33 DEB", "group": "iridium-33-debris", "lat": -86.15106151596349, "lon": -169.25984955988747, "alt_km": 634.4602303700858, "timestamp": "2025-12-19T04:59:48.691869+00:00", "meta": {"OBJECT_NAME": "IRIDIUM 33 DEB", "OBJECT_ID": "1997-051QJ", "EPOCH": "2025-12-18T06:44:16.731744", "MEAN_MOTION": 14.83196659, "ECCENTRICITY": 0.00291507, "INCLINATION": 86.3243, "RA_OF_ASC_NODE": 298.3231, "ARG_OF_PERICENTER": 24.8223, "MEAN_ANOMALY": 335.4395, "EPHEMERIS_TYPE": 0, "CLASSIFICATION_TYPE": "U", "NORAD_CAT_ID": 35488, "ELEMENT_SET_NO": 999, "REV_AT_EPOCH": 88348, "BSTAR": 0.0014098178, "MEAN_MOTION_DOT": 0.00011627, "MEAN_MOTION_DDOT": 0}, "tle": {"line1": "1 35488U 97051QJ  25352.28074921  .00011627  00000+0  14098-2 0  9990", "line2": "2 35488  86.3243 298.3231 0029150  24.8223 335.4395 14.83196659883487"}}, "geometry": {"type": "Point", "coordinates": [-169.25984955988747, -86.15106151596349]}}, {"type": "Feature", "properties": {"norad_id": 35616, "name": "IRIDIUM 33 DEB", "group": "iridium-33-debris", "lat": 39.13076027795294, "lon": -14.214666441980176, "alt_km": 621.8839405841936, "timestamp": "2025-12-19T04:59:48.691879+00:00", "meta": {"OBJECT_NAME": "IRIDIUM 33 DEB", "OBJECT_ID": "1997-051QN", "EPOCH": "2025-12-18T17:28:35.161536", "MEAN_MOTION": 14.81959422, "ECCENTRICITY": 0.00110011, "INCLINATION": 86.3545, "RA_OF_ASC_NODE": 343.0312, "ARG_OF_PERICENTER": 143.2203, "MEAN_ANOMALY": 216.9777, "EPHEMERIS_TYPE": 0, "CLASSIFICATION_TYPE": "U", "NORAD_CAT_ID": 35616, "ELEMENT_SET_NO": 999, "REV_AT_EPOCH": 87663, "BSTAR": 0.0013060156, "MEAN_MOTION_DOT": 0.0001039, "MEAN_MOTION_DDOT": 0}, "tle": {"line1": "1 35616U 97051QN  25352.72818474  .00010390  00000+0  13060-2 0  9995", "line2": "2 35616  86.3545 343.0312 0011001 143.2203 216.9777 14.81959422876632"}}, "geometry": {"type": "Point", "coordinates": [-14.214666441980176, 39.13076027795294]}}, {"type": "Feature", "properties": {"norad_id": 35618, "name": "IRIDIUM 33 DEB", "group": "iridium-33-debris", "lat": -17.369243976602135, "lon": 171.82505678635843, "alt_km": 742.5903160457701, "timestamp": "2025-12-19T04:59:48.691891+00:00", "meta": {"OBJECT_NAME": "IRIDIUM 33 DEB", "OBJECT_ID": "1997-051QQ", "EPOCH": "2025-12-13T19:06:39.662496", "MEAN_MOTION": 14.52305973, "ECCENTRICITY": 0.00288889, "INCLINATION": 86.3427, "RA_OF_ASC_NODE": 353.0427, "ARG_OF_PERICENTER": 17.6332, "MEAN_ANOMALY": 342.5869, "EPHEMERIS_TYPE": 0, "CLASSIFICATION_TYPE": "U", "NORAD_CAT_ID": 35618, "ELEMENT_SET_NO": 999, "REV_AT_EPOCH": 65409, "BSTAR": 0.0005678553, "MEAN_MOTION_DOT": 2.341e-05, "MEAN_MOTION_DDOT": 0}, "tle": {"line1": "1 35618U 97051QQ  25347.79629239  .00002341  00000+0  56786-3 0  9997", "line2": "2 35618  86.3427 353.0427 0028888  17.6332 342.5869 14.52305973654095"}}, "geometry": {"type": "Point", "coordinates": [171.82505678635843, -17.369243976602135]}}, {"type": "Feature", "properties": {"norad_id": 35620, "name": "IRIDIUM 33 DEB", "group": "iridium-33-debris", "lat": -30.31126282936502, "lon": 36.840149756326866, "alt_km": 681.3625337002532, "timestamp": "2025-12-19T04:59:48.691902+00:00", "meta": {"OBJECT_NAME": "IRIDIUM 33 DEB", "OBJECT_ID": "1997-051QS", "EPOCH": "2025-12-18T07:58:30.597312", "MEAN_MOTION": 14.38231155, "ECCENTRICITY": 0.01396071, "INCLINATION": 86.3909, "RA_OF_ASC_NODE": 215.0948, "ARG_OF_PERICENTER": 240.37, "MEAN_ANOMALY": 118.3533, "EPHEMERIS_TYPE": 0, "CLASSIFICATION_TYPE": "U", "NORAD_CAT_ID": 35620, "ELEMENT_SET_NO": 999, "REV_AT_EPOCH": 60046, "BSTAR": 0.0042608437, "MEAN_MOTION_DOT": 0.00014532, "MEAN_MOTION_DDOT": 0}, "tle": {"line1": "1 35620U 97051QS  25352.33229858  .00014532  00000+0  42608-2 0  9991", "line2": "2 35620  86.3909 215.0948 0139607 240.3700 118.3533 14.38231155600467"}}, "geometry": {"type": "Point", "coordinates": [36.840149756326866, -30.31126282936502]}}, {"type": "Feature", "properties": {"norad_id": 35622, "name": "IRIDIUM 33 DEB", "group": "iridium-33-debris", "lat": 54.30219650789835, "lon": -94.28100631401193, "alt_km": 545.8456426305347, "timestamp": "2025-12-19T04:59:48.691914+00:00", "meta": {"OBJECT_NAME": "IRIDIUM 33 DEB", "OBJECT_ID": "1997-051QU", "EPOCH": "2025-12-14T12:14:43.972224", "MEAN_MOTION": 15.04969242, "ECCENTRICITY": 0.00054886, "INCLINATION": 86.2028, "RA_OF_ASC_NODE": 262.7313, "ARG_OF_PERICENTER": 323.1514, "MEAN_ANOMALY": 209.8665, "EPHEMERIS_TYPE": 0, "CLASSIFICATION_TYPE": "U", "NORAD_CAT_ID": 35622, "ELEMENT_SET_NO": 999, "REV_AT_EPOCH": 87386, "BSTAR": 0.0048535985, "MEAN_MOTION_DOT": 0.00069411, "MEAN_MOTION_DDOT": 0}, "tle": {"line1": "1 35622U 97051QU  25348.51023116  .00069411  00000+0  48536-2 0  9999", "line2": "2 35622  86.2028 262.7313 0005488 323.1514 209.8665 15.04969242873864"}}, "geometry": {"type": "Point", "coordinates": [-94.28100631401193, 54.30219650789835]}}, {"type": "Feature", "properties": {"norad_id": 35628, "name": "IRIDIUM 33 DEB", "group": "iridium-33-debris", "lat": 86.26185016263179, "lon": 108.97614493728013, "alt_km": 665.6670764516375, "timestamp": "2025-12-19T04:59:48.691925+00:00", "meta": {"OBJECT_NAME": "IRIDIUM 33 DEB", "OBJECT_ID": "1997-051RA", "EPOCH": "2025-12-18T07:18:45.213408", "MEAN_MOTION": 14.6766102, "ECCENTRICITY": 0.00098417, "INCLINATION": 86.3567, "RA_OF_ASC_NODE": 6.5937, "ARG_OF_PERICENTER": 321.9777, "MEAN_ANOMALY": 38.0742, "EPHEMERIS_TYPE": 0, "CLASSIFICATION_TYPE": "U", "NORAD_CAT_ID": 35628, "ELEMENT_SET_NO": 999, "REV_AT_EPOCH": 86528, "BSTAR": 0.0011340632, "MEAN_MOTION_DOT": 6.475e-05, "MEAN_MOTION_DDOT": 0}, "tle": {"line1": "1 35628U 97051RA  25352.30468997  .00006475  00000+0  11341-2 0  9992", "line2": "2 35628  86.3567   6.5937 0009841 321.9777  38.0742 14.67661020865285"}}, "geometry": {"type": "Point", "coordinates": [108.97614493728013, 86.26185016263179]}}, {"type": "Feature", "properties": {"norad_id": 35631, "name": "IRIDIUM 33 DEB", "group": "iridium-33-debris", "lat": -54.62337777669732, "lon": -156.67534465580988, "alt_km": 751.4279461377782, "timestamp": "2025-12-19T04:59:48.691935+00:00", "meta": {"OBJECT_NAME": "IRIDIUM 33 DEB", "OBJECT_ID": "1997-051RD", "EPOCH": "2025-12-17T02:23:33.513216", "MEAN_MOTION": 14.47323174, "ECCENTRICITY": 0.00191499, "INCLINATION": 86.3669, "RA_OF_ASC_NODE": 19.0985, "ARG_OF_PERICENTER": 104.9158, "MEAN_ANOMALY": 310.5558, "EPHEMERIS_TYPE": 0, "CLASSIFICATION_TYPE": "U", "NORAD_CAT_ID": 35631, "ELEMENT_SET_NO": 999, "REV_AT_EPOCH": 87260, "BSTAR": 0.00028519596, "MEAN_MOTION_DOT": 1.066e-05, "MEAN_MOTION_DDOT": 0}, "tle": {"line1": "1 35631U 97051RD  25351.09969344  .00001066  00000+0  28520-3 0  9992", "line2": "2 35631  86.3669  19.0985 0019149 104.9158 310.5558 14.47323174872608"}}, "geometry": {"type": "Point", "coordinates": [-156.67534465580988, -54.62337777669732]}}, {"type": "Feature", "properties": {"norad_id": 35680, "name": "IRIDIUM 33 DEB", "group": "iridium-33-debris", "lat": -45.6429748865003, "lon": 14.661084601018404, "alt_km": 767.7863891462066, "timestamp": "2025-12-19T04:59:48.691947+00:00", "meta": {"OBJECT_NAME": "IRIDIUM 33 DEB", "OBJECT_ID": "1997-051RJ", "EPOCH": "2025-12-17T20:16:19.922592", "MEAN_MOTION": 14.21000805, "ECCENTRICITY": 0.01505036, "INCLINATION": 86.1025, "RA_OF_ASC_NODE": 19.2625, "ARG_OF_PERICENTER": 262.1515, "MEAN_ANOMALY": 279.7609, "EPHEMERIS_TYPE": 0, "CLASSIFICATION_TYPE": "U", "NORAD_CAT_ID": 35680, "ELEMENT_SET_NO": 999, "REV_AT_EPOCH": 60773, "BSTAR": 0.0028027984, "MEAN_MOTION_DOT": 6.829e-05, "MEAN_MOTION_DDOT": 0}, "tle": {"line1": "1 35680U 97051RJ  25351.84467503  .00006829  00000+0  28028-2 0  9993", "line2": "2 35680  86.1025  19.2625 0150503 262.1515 279.7609 14.21000805607731"}}, "geometry": {"type": "Point", "coordinates": [14.661084601018404, -45.6429748865003]}}]}